COMMENT,ORIGINATOR,NORAD_CAT_ID,OBJECT_NAME,OBJECT_TYPE,CLASSIFICATION_TYPE,INTLDES,EPOCH,EPOCH_MICROSECONDS,MEAN_MOTION,ECCENTRICITY,INCLINATION,RA_OF_ASC_NODE,ARG_OF_PERICENTER,MEAN_ANOMALY,EPHEMERIS_TYPE,ELEMENT_SET_NO,REV_AT_EPOCH,BSTAR,MEAN_MOTION_DOT,MEAN_MOTION_DDOT,FILE,TLE_LINE0,TLE_LINE1,TLE_LINE2,OBJECT_ID,OBJECT_NUMBER,SEMIMAJOR_AXIS,PERIOD,APOGEE,PERIGEE,DECAYED
GENERATED VIA SPACETRACK.ORG API,18 SPCS,4084,SL-8 DEB,DEBRIS,U,69070C,2023-12-22 15:04:52,834656,14.46459489,0.0022358,74.066,207.8439,329.6368,30.3494,0,999,86451,8.1675e-05,2.68e-06,0,4142519,0 SL-8 DEB,1 04084U 69070C   23356.62838929  .00000268  00000-0  81675-4 0  9991,2 04084  74.0660 207.8439 0022358 329.6368  30.3494 14.46459489864512,1969-070C,4084,7115.373,99.553,753.146,721.329,0
GENERATED VIA SPACETRACK.ORG API,18 SPCS,4084,SL-8 DEB,DEBRIS,U,69070C,2023-12-22 21:43:15,349728,14.46459537,0.0022387,74.066,207.3284,329.0653,30.9185,0,999,86455,7.7756e-05,2.53e-06,0,4142803,0 SL-8 DEB,1 04084U 69070C   23356.90503877  .00000253  00000-0  77756-4 0  9992,2 04084  74.0660 207.3284 0022387 329.0653  30.9185 14.46459537864559,1969-070C,4084,7115.373,99.553,753.167,721.308,0
GENERATED VIA SPACETRACK.ORG API,18 SPCS,4084,SL-8 DEB,DEBRIS,U,69070C,2023-12-23 14:19:11,620128,14.4646007,0.0022398,74.066,206.0396,327.644,32.3343,0,999,86465,8.4207e-05,2.77e-06,0,4143387,0 SL-8 DEB,1 04084U 69070C   23357.59666227  .00000277  00000-0  84207-4 0  9992,2 04084  74.0660 206.0396 0022398 327.6440  32.3343 14.46460070864656,1969-070C,4084,7115.371,99.553,753.173,721.299,0
GENERATED VIA SPACETRACK.ORG API,18 SPCS,4084,SL-8 DEB,DEBRIS,U,69070C,2023-12-23 17:38:22,866432,14.46460162,0.002241,74.066,205.7817,327.3529,32.6242,0,999,86465,8.4231e-05,2.77e-06,0,4143493,0 SL-8 DEB,1  4084U 69070C   23357.73498688  .00000277  00000-0  84231-4 0  9999,2  4084  74.0660 205.7817 0022410 327.3529  32.6242 14.46460162864653,1969-070C,4084,7115.371,99.553,753.181,721.29,0
GENERATED VIA SPACETRACK.ORG API,18 SPCS,4084,SL-8 DEB,DEBRIS,U,69070C,2023-12-23 22:37:09,751008,14.46460251,0.0022438,74.0661,205.3952,326.9339,33.0415,0,999,86470,8.449e-05,2.78e-06,0,4143662,0 SL-8 DEB,1 04084U 69070C   23357.94247397  .00000278  00000-0  84490-4 0  9999,2 04084  74.0661 205.3952 0022438 326.9339  33.0415 14.46460251864706,1969-070C,4084,7115.37,99.553,753.201,721.27,0
GENERATED VIA SPACETRACK.ORG API,18 SPCS,4084,SL-8 DEB,DEBRIS,U,69070C,2023-12-24 13:33:30,373632,14.46460567,0.0022424,74.0661,204.2354,325.6445,34.3262,0,999,86479,8.1369e-05,2.66e-06,0,4144212,0 SL-8 DEB,1 04084U 69070C   23358.56493488  .00000266  00000-0  81369-4 0  9991,2 04084  74.0661 204.2354 0022424 325.6445  34.3262 14.46460567864792,1969-070C,4084,7115.369,99.553,753.19,721.279,0
GENERATED VIA SPACETRACK.ORG API,18 SPCS,4084,SL-8 DEB,DEBRIS,U,69070C,2023-12-24 21:51:28,491552,14.4646077,0.002244,74.0661,203.5909,324.9162,35.0517,0,999,86484,8.2555e-05,2.71e-06,0,4144500,0 SL-8 DEB,1 04084U 69070C   23358.91074643  .00000271  00000-0  82555-4 0  9992,2 04084  74.0661 203.5909 0022440 324.9162  35.0517 14.46460770864849,1969-070C,4084,7115.369,99.553,753.2,721.267,0
GENERATED VIA SPACETRACK.ORG API,18 SPCS,4084,SL-8 DEB,DEBRIS,U,69070C,2023-12-25 14:27:24,710112,14.46461131,0.0022474,74.066,202.302,323.511,36.4516,0,999,86494,7.7103e-05,2.51e-06,0,4145093,0 SL-8 DEB,1 04084U 69070C   23359.60236933  .00000251  00000-0  77103-4 0  9992,2 04084  74.0660 202.3020 0022474 323.5110  36.4516 14.46461131864941,1969-070C,4084,7115.367,99.553,753.223,721.241,0
GENERATED VIA SPACETRACK.ORG API,18 SPCS,4084,SL-8 DEB,DEBRIS,U,69070C,2023-12-25 17:46:35,951232,14.46461207,0.0022491,74.0661,202.0442,323.2304,36.731,0,999,86494,7.6647e-05,2.49e-06,0,4145277,0 SL-8 DEB,1  4084U 69070C   23359.74069388  .00000249  00000-0  76647-4 0  9994,2  4084  74.0661 202.0442 0022491 323.2304  36.7310 14.46461207864947,1969-070C,4084,7115.367,99.553,753.235,721.229,0
GENERATED VIA SPACETRACK.ORG API,18 SPCS,4084,SL-8 DEB,DEBRIS,U,69070C,2023-12-25 22:45:22,817664,14.46461254,0.0022507,74.0661,201.6576,322.8101,37.1497,0,999,86499,7.369e-05,2.39e-06,0,4145360,0 SL-8 DEB,1 04084U 69070C   23359.94818076  .00000239  00000-0  73690-4 0  9996,2 04084  74.0661 201.6576 0022507 322.8101  37.1497 14.46461254864996,1969-070C,4084,7115.367,99.553,753.247,721.217,0
GENERATED VIA SPACETRACK.ORG API,18 SPCS,4084,SL-8 DEB,DEBRIS,U,69070C,2023-12-26 13:41:43,397088,14.46461686,0.002249,74.0662,200.4981,321.5036,38.4518,0,999,86508,7.5388e-05,2.45e-06,0,4145944,0 SL-8 DEB,1 04084U 69070C   23360.57064117  .00000245  00000-0  75388-4 0  9999,2 04084  74.0662 200.4981 0022490 321.5036  38.4518 14.46461686865086,1969-070C,4084,7115.366,99.553,753.233,721.228,0
GENERATED VIA SPACETRACK.ORG API,18 SPCS,4084,SL-8 DEB,DEBRIS,U,69070C,2023-12-26 21:59:41,490816,14.46461797,0.0022506,74.0662,199.8537,320.788,39.1647,0,999,86513,7.121e-05,2.3e-06,0,4146233,0 SL-8 DEB,1 04084U 69070C   23360.91645244  .00000230  00000-0  71210-4 0  9997,2 04084  74.0662 199.8537 0022506 320.7880  39.1647 14.46461797865130,1969-070C,4084,7115.365,99.553,753.244,721.216,0
GENERATED VIA SPACETRACK.ORG API,18 SPCS,4084,SL-8 DEB,DEBRIS,U,69070C,2023-12-27 14:35:37,666176,14.46462337,0.0022512,74.0662,198.5649,319.3565,40.5912,0,999,86523,7.5757e-05,2.46e-06,0,4146803,0 SL-8 DEB,1 04084U 69070C   23361.60807484  .00000246  00000-0  75757-4 0  9997,2 04084  74.0662 198.5649 0022512 319.3565  40.5912 14.46462337865234,1969-070C,4084,7115.363,99.553,753.247,721.21,0
GENERATED VIA SPACETRACK.ORG API,18 SPCS,4084,SL-8 DEB,DEBRIS,U,69070C,2023-12-27 17:54:48,898656,14.46462403,0.0022519,74.0662,198.3072,319.069,40.8777,0,999,86523,7.5432e-05,2.45e-06,0,4146949,0 SL-8 DEB,1  4084U 69070C   23361.74639929  .00000245  00000-0  75432-4 0  9998,2  4084  74.0662 198.3072 0022519 319.0690  40.8777 14.46462403865231,1969-070C,4084,7115.363,99.553,753.251,721.205,0
GENERATED VIA SPACETRACK.ORG API,18 SPCS,4084,SL-8 DEB,DEBRIS,U,69070C,2023-12-27 21:14:00,134592,14.46462326,0.0022518,74.0662,198.0494,318.777,41.1687,0,999,86527,6.8091e-05,2.19e-06,0,4147095,0 SL-8 DEB,1 04084U 69070C   23361.88472378  .00000219  00000-0  68091-4 0  9990,2 04084  74.0662 198.0494 0022518 318.7770  41.1687 14.46462326865272,1969-070C,4084,7115.363,99.553,753.251,721.206,0
GENERATED VIA SPACETRACK.ORG API,18 SPCS,4084,SL-8 DEB,DEBRIS,U,69070C,2023-12-28 13:49:56,290944,14.46462721,0.0022527,74.0662,196.7606,317.3488,42.5921,0,999,86537,6.5325e-05,2.09e-06,0,4147674,0 SL-8 DEB,1 04084U 69070C   23362.57634596  .00000209  00000-0  65325-4 0  9995,2 04084  74.0662 196.7606 0022527 317.3488  42.5921 14.46462721865379,1969-070C,4084,7115.362,99.553,753.256,721.198,0
GENERATED VIA SPACETRACK.ORG API,18 SPCS,4084,SL-8 DEB,DEBRIS,U,69070C,2023-12-28 22:07:54,362208,14.46462744,0.0022543,74.0662,196.116,316.6074,43.3309,0,999,86542,5.7387e-05,1.8e-06,0,4147928,0 SL-8 DEB,1 04084U 69070C   23362.92215697  .00000180  00000-0  57387-4 0  9998,2 04084  74.0662 196.1160 0022543 316.6074  43.3309 14.46462744865429,1969-070C,4084,7115.362,99.553,753.267,721.187,0
GENERATED VIA SPACETRACK.ORG API,18 SPCS,4084,SL-8 DEB,DEBRIS,U,69070C,2023-12-29 14:43:50,502144,14.46463169,0.0022538,74.0662,194.8275,315.211,44.7228,0,999,86552,5.7711e-05,1.81e-06,0,4148460,0 SL-8 DEB,1 04084U 69070C   23363.61377896  .00000181  00000-0  57711-4 0  9997,2 04084  74.0662 194.8275 0022538 315.2110  44.7228 14.46463169865529,1969-070C,4084,7115.361,99.553,753.262,721.189,0
GENERATED VIA SPACETRACK.ORG API,18 SPCS,4084,SL-8 DEB,DEBRIS,U,69070C,2023-12-29 19:42:37,343520,14.46463245,0.0022549,74.0662,194.4408,314.7829,45.1495,0,999,86553,5.739e-05,1.8e-06,0,4148601,0 SL-8 DEB,1  4084U 69070C   23363.82126555  .00000180  00000-0  57390-4 0  9996,2  4084  74.0662 194.4408 0022549 314.7829  45.1495 14.46463245865533,1969-070C,4084,7115.36,99.553,753.27,721.181,0
GENERATED VIA SPACETRACK.ORG API,18 SPCS,4084,SL-8 DEB,DEBRIS,U,69070C,2023-12-29 21:22:12,956736,14.46463223,0.0022552,74.0662,194.3119,314.6416,45.2903,0,999,86556,5.4303e-05,1.69e-06,0,4148761,0 SL-8 DEB,1 04084U 69070C   23363.89042774  .00000169  00000-0  54303-4 0  9991,2 04084  74.0662 194.3119 0022552 314.6416  45.2903 14.46463223865560,1969-070C,4084,7115.361,99.553,753.272,721.179,0
GENERATED VIA SPACETRACK.ORG API,18 SPCS,4084,SL-8 DEB,DEBRIS,U,69070C,2023-12-30 13:58:09,87168,14.46463622,0.0022575,74.0662,193.0231,313.2271,46.7002,0,999,86566,5.6048e-05,1.75e-06,0,4149332,0 SL-8 DEB,1 04084U 69070C   23364.58204962  .00000175  00000-0  56048-4 0  9992,2 04084  74.0662 193.0231 0022575 313.2271  46.7002 14.46463622865660,1969-070C,4084,7115.359,99.553,753.287,721.161,0
GENERATED VIA SPACETRACK.ORG API,18 SPCS,4084,SL-8 DEB,DEBRIS,U,69070C,2023-12-30 22:16:07,153248,14.46463601,0.0022629,74.0661,192.3784,312.5601,47.3647,0,999,86571,4.8388e-05,1.47e-06,0,4149598,0 SL-8 DEB,1 04084U 69070C   23364.92786057  .00000147  00000-0  48388-4 0  9997,2 04084  74.0661 192.3784 0022629 312.5601  47.3647 14.46463601865718,1969-070C,4084,7115.359,99.553,753.326,721.123,0
GENERATED VIA SPACETRACK.ORG API,18 SPCS,4084,SL-8 DEB,DEBRIS,U,69070C,2023-12-31 19:50:50,106912,14.46464035,0.0022665,74.0661,190.7029,310.7494,49.1697,0,999,86582,5.0539e-05,1.55e-06,0,4150266,0 SL-8 DEB,1  4084U 69070C   23365.82696883  .00000155  00000-0  50539-4 0  9994,2  4084  74.0661 190.7029 0022665 310.7494  49.1697 14.46464035865821,1969-070C,4084,7115.358,99.553,753.35,721.096,0
GENERATED VIA SPACETRACK.ORG API,18 SPCS,4084,SL-8 DEB,DEBRIS,U,69070C,2023-12-31 21:30:25,719264,14.46463959,0.0022667,74.0661,190.5741,310.6108,49.3078,0,999,86585,4.5265e-05,1.36e-06,0,4150400,0 SL-8 DEB,1 04084U 69070C   23365.89613101  .00000136  00000-0  45265-4 0  9992,2 04084  74.0661 190.5741 0022667 310.6108  49.3078 14.46463959865855,1969-070C,4084,7115.358,99.553,753.352,721.095,0
